#dP2021  1  4  0  0  0.00000000     289 ORBIT ITRF  BHN ESOC                    
## 2139  86400.00000000   300.00000000 59218 0.0000000000000                    
+  108   G13G28G21G22G07G05G20G31G17G15G16G29G12G19G02G25G01                    
+        G30G24G27G06G09G03G32G26G08G10G04G18G23G14R09R11R20                    
+        R19R13R01R22R16R08R03R07R02R17R14R18R21R05R15R12R04                    
+        R24E11E12E19E18E14E26E24E30E08E09E01E02E07E03E04E05                    
+        E21E25E27E31E36E13E15E33C11C12C14C19C20C27C28C22C21                    
+        C29C30C23C24C26C25C32C33C35C34C36C37C06C07C08C09C10                    
+        C13C16C39J01J02J03  0  0  0  0  0  0  0  0  0  0  0                    
++         4  4  5  5  4  5  5  4  5  4  5  5  5  5  5  4  4                    
++         4  4  4  4  4  4  5  4  5  4  4  4  5  4  4  5  6                    
++         6  6  5  6  6  5  5  5  5  4  5  5  5  4  4  5  5                    
++         5  4  5  5  5  5  5  5  7  4  5  4  5  4  5  5  5                    
++         5  5  4  4  5  5  5  5  4  6  4  6  5  5  5  6  6                    
++         5  5  5  6  6  5  5  5  6  5  6  5  6  6  7  7  7                    
++         7  6  7  7  7  7  0  0  0  0  0  0  0  0  0  0  0                    
%c M  cc GPS ccc cccc cccc cccc cccc ccccc ccccc ccccc ccccc                    
%c cc cc ccc ccc cccc cccc cccc cccc ccccc ccccc ccccc ccccc                    
%f  0.0000000  0.000000000  0.00000000000  0.000000000000000                    
%f  0.0000000  0.000000000  0.00000000000  0.000000000000000                    
%i    0    0    0    0      0      0      0      0         0                    
%i    0    0    0    0      0      0      0      0         0                    
/* CCCCCCCCCCCCCCCCCCCCCCCCCCCCCCCCCCCCCCCCCCCCCCCCCCCCCCCCCCCCCCCCCCCCCCCCCCCCC
/* CCCCCCCCCCCCCCCCCCCCCCCCCCCCCCCCCCCCCCCCCCCCCCCCCCCCCCCCCCCCCCCCCCCCCCCCCCCCC
/* CCCCCCCCCCCCCCCCCCCCCCCCCCCCCCCCCCCCCCCCCCCCCCCCCCCCCCCCCCCCCCCCCCCCCCCCCCCCC
/* PCV:IGS        OL/AL:EOT11A   NONE     YN ORB:CoN CLK:CoN                    
*  2021  1  4  9 40  0.00000000                                                 
PG13  13198.303512 -20935.402678   9341.239975     82.196434                    
PG28  21244.413225  10635.488747 -11111.442985    634.318004                    
PG21 -10107.247057  17334.540468 -16458.368951     83.774738                    
PG22   1388.521593  18156.367274 -19190.580212   -704.138251                    
PG07  15218.715462   9663.271532  19984.554483      8.535285                    
PG05  10154.810142 -11434.266090  21569.556867    -30.093424                    
PG20 -21667.565739 -15421.968964   2377.108254    525.318211                    
PG31 -25870.486313   6104.158679  -3614.520517    -91.784247                    
PG17  14488.951832   1717.863017 -21758.145633    375.859172                    
PG15   1817.853926 -26289.019329    396.221865   -178.665030                    
PG16 -11664.728462   9204.713299  21802.991194   -260.109338                    
PG29  -5933.067725 -20317.254317  15982.685494   -269.196498                    
PG12  -4366.434824 -20171.097169 -17044.885841     17.651244                    
PG19  16002.675011  -6149.395618 -20544.213402    -56.413886                    
PG02  20781.008153 -15099.192487   7410.291477   -562.161425                    
PG25 -16513.518005 -19915.926198  -6870.039747     52.920770                    
PG01  -1463.739787  15761.789524 -21506.832376    785.775404                    
PG30  23213.971238   2225.886508  12959.537092   -363.425844                    
PG24   5366.754518 -17798.205532 -19061.653892      4.142029                    
PG27 -12221.203161  19344.346813  13022.661740    -48.992559                    
PG06  25366.871373  -4982.575248  -6135.516262     -4.630310                    
PG09   8708.108574  19093.087667  16202.915042   -309.044717                    
PG03   8933.050858  20454.808468 -14553.600837    -47.427450                    
PG32 -15314.128100   -658.289254 -21592.694942     12.366811                    
PG26 -19864.718278    921.935255  17686.539901     24.780940                    
PG08  -5208.060463  25824.109815   1764.350068     -5.357679                    
PG10 -22674.933615  -9906.718640  -9904.092548    -31.479756                    
PG04   -520.766099  25680.315959   6658.954734   -169.992263                    
PG18 -16919.064526  -7971.735854  18876.590311    338.596766                    
PG23 -20829.330676 -16510.265267     77.298449    114.447368                    
PG14  22073.827561  12152.600873  -8412.868426     79.383955                    
PR09 -25114.277008  -4096.795718   1202.646109     16.711150                    
PR11  -1230.842169  10817.675729  23077.048548      4.891897                    
PR20 -15272.044259   3155.860454  20186.926001   -430.393054                    
PR19  -1089.944810 -13082.424632  21876.690865   -126.494092                    
PR13  25140.192768   4232.330557   -775.847748    -48.862203                    
PR01  10226.191614  23095.684511   3602.227319     72.989904                    
PR22 -10416.411344  19751.871732 -12248.052553    -90.650767                    
PR16 -18058.136245 -10397.487242 -14831.489952     -9.853657                    
PR08   2421.938324  22993.203671 -10703.560008    -56.676618                    
PR03   7300.947894 -10914.086093  21915.335654     28.516964                    
PR07  -7008.958123  11418.868461 -21665.459282    -42.055978                    
PR02  12846.268795   7592.915170  20704.296661    461.430287                    
PR17  18285.853426 -16827.713930  -5649.299673    388.257857                    
PR14  18311.032321  -4832.199206 -17082.558486     59.458637                    
PR18  11142.689150 -20068.976639  11200.743290     61.987856                    
PR21 -18162.015211  17342.643387   4568.114511   -177.972596                    
PR05 -10643.243456 -22309.009779  -6350.297719     64.118489                    
PR15   1020.494619 -10972.959884 -22986.377364    106.043960                    
PR12  17041.017827  10849.500673  15581.005412    193.836213                    
PR04  -2420.112822 -22978.081531  10839.435539     68.528491                    
PR24  15881.909488  -3737.455550 -19577.999540     26.509535                    
PE11  18482.729620 -20532.894075  10646.543864   6525.375097                    
PE12  26286.008003 -10451.363216  -8732.234813   5423.741513                    
PE19  14118.089261  17934.365553  18842.113927    169.875613                    
PE18   1985.191865  28638.840828 -10867.229180  -1402.046406                    
PE14   9061.218070 -24864.834213  -3796.848747  -1282.911899                    
PE26    484.478644  18154.213962 -23363.592254   2304.713905                    
PE24   9747.481049 -13523.944542 -24467.174765   -671.413357                    
PE30 -25043.826408  -1026.336797  15756.046036   3290.415963                    
PE08 -16289.720131   6748.121812 -23783.006372   6067.109642                    
PE09   7972.559466 -25158.467667  13387.301032   5810.407836                    
PE01  25640.923731  14655.564613   1884.940262  -1017.594672                    
PE02 -25701.955366 -14600.840238  -1771.957282    188.554363                    
PE07  -8275.699825  25042.294776 -13447.695819   -483.266612                    
PE03 -15042.254486 -15711.903970 -20079.293060   -383.526406                    
PE04  16519.808007  -6318.100008  23733.009289   -681.822209                    
PE05  -4708.898368 -28863.226510  -4579.182195   -315.715911                    
PE21  11984.693051  19940.294364  18295.307528   -640.972898                    
PE25 -11837.574184 -19940.502701 -18396.016606   -523.621114                    
PE27  -9098.662341  13841.949383  24536.432272     58.255833                    
PE31  24686.077441    347.671553 -16314.052071   -477.058638                    
PE36    194.143400 -18318.014190  23262.711635    458.825216                    
PE13 -18712.695458  20481.172501 -10306.936220    409.633276                    
PE15 -26232.074837  10592.037587   8725.112193    835.916942                    
PE33  18317.335519   5495.648681 -22580.525776   -464.593503                    
PC11  -8755.055076 -13965.271929  22579.401505   -863.059810                    
PC12   5805.164011 -24598.414410  11847.899742    707.945263                    
PC14 -16535.057244 -21848.172631  -5126.418933   -171.988822                    
PC19  19336.357516  14784.937254  13677.655943    678.434846                    
PC20  12012.515290  25042.439917  -2827.641940   -909.481702                    
PC27 -12828.878262  24610.562778  -2836.003908    460.639666                    
PC28 -19842.047693  13573.864568  14183.832878   -125.921411                    
PC22  15660.061987  -4288.868266  22695.816129   -834.266995                    
PC21   2905.869350 -20763.111495  18420.802734   -779.328603                    
PC29  15394.508700   4796.786288 -22777.381491    333.856375                    
PC30   2099.547967  21375.877052 -17802.509788    426.542300                    
PC23 -26125.342501   5373.941785   8226.177452   -885.092354                    
PC24  -9306.549658 -15415.043513 -21336.478803   -737.061366                    
PC26  10532.577066 -15030.982809 -21017.751556    966.484114                    
PC25 -25749.588074  -6149.953190  -8870.924970   -885.423740                    
PC32  -2754.026297  20788.322253 -18404.768584   -881.881137                    
PC33 -19404.020436 -14749.741221 -13578.624440   -899.196708                    
PC35  19422.820212 -14012.508014 -14349.493561   -481.798939                    
PC34  -2572.213795 -21038.385933  18162.368677   -771.016348                    
PC36  25424.431050   6952.895932   9175.608160   -785.743843                    
PC37 -11801.461124  14549.706519  20705.242596   -861.067879                    
PC06 -17462.618534  37973.093499  -2762.383989    106.737706                    
PC07  -7081.837228  28492.405518  30656.553170   -194.503282                    
PC08 -21771.491154  21144.276323 -29327.925976   -860.510036                    
PC09  -7316.541223  39205.491521  13291.695483    826.663951                    
PC10   5489.048263  34233.771502  24484.496646   -110.333103                    
PC13  -6197.179917  23590.974459 -34341.060488     82.896292                    
PC16 -16498.654179  38631.933464  -1934.045780   -649.539911                    
PC39 -12586.399122  40165.561193    -81.317520     26.996821                    
PJ01 -20151.963292  23799.141019 -23830.813758   -335.722553                    
PJ02 -28635.511851  20781.432340  27802.366927      0.469277                    
PJ03 -31056.259493  27696.532937  11379.718881     -5.299885                    
EOF                                                                             
